{
  "norad_id": 56794,
  "name": "STARLINK-6060",
  "history": [
    {
      "epoch": "2026-03-28T20:20:06.344160",
      "apogee_km": 574.1393803423789,
      "perigee_km": 569.973434413997,
      "latitude_deg": 51.2698724433272,
      "longitude_deg": -59.2596175998915,
      "semi_major_axis_km": 6950.193407378188,
      "eccentricity": 0.0002997,
      "inclination_deg": 69.998,
      "raan_deg": 276.1296,
      "arg_perigee_deg": 267.7916,
      "mean_anomaly_deg": 92.29,
      "mean_motion_rev_day": 14.98329833
    }
  ]
}