{"fetched_at":"2026-03-30T13:17:50Z","count":15418,"tles":[{"name":"STARLINK-6060","line1":"1 56794U 23078AD  26087.84729565  .00000128  00000+0  18488-4 0  9993","line2":"2 56794  69.9980 276.1296 0002997 267.7916  92.2900 14.98329833156040","category":"Starlink"}]}